ONEWEB-0656             
1 55817U 23029X   25085.48144367 -.00000194  00000+0 -50867-3 0  9993
2 55817  87.9342   3.5286 0001545  97.1105 263.0204 13.20771178102055
ONEWEB-0657             
1 55818U 23029Y   25085.82972867 -.00000128  00000+0 -35208-3 0  9995
2 55818  87.9235  33.9001 0001103  85.0506 275.0753 13.19726089 99900
ONEWEB-0658             
1 55819U 23029Z   25085.59753413  .00000009  00000+0 -97976-5 0  9993
2 55819  87.9234  33.8802 0002040  65.3928 294.7417 13.19726877 99885
ONEWEB-0660             
1 55820U 23029AA  25085.55409103  .00000113  00000+0  27072-3 0  9998
2 55820  87.9087  18.6935 0002249  75.9322 284.2058 13.14502620100596
ONEWEB-0661             
1 55821U 23029AB  25085.74121110 -.00000180  00000+0 -51867-3 0  9994
2 55821  87.9089  18.7263 0002290  79.1409 280.9978 13.14501241100606
ONEWEB-0662             
1 55822U 23029AC  25085.54773686  .00000047  00000+0  93553-4 0  9993
2 55822  87.9088  18.7715 0002237  74.8944 285.2433 13.14502561100627
ONEWEB-0663             
1 55823U 23029AD  25085.69378851 -.00000167  00000+0 -44170-3 0  9990
2 55823  87.9338   3.5438 0002245  71.9513 288.1865 13.20827674102073
ONEWEB-0664             
1 55824U 23029AE  25085.31731159  .00000076  00000+0  15401-3 0  9996
2 55824  87.9340   3.6369 0002158  88.5897 271.5483 13.20774703102024
