<?xml version="1.0" encoding="UTF-8"?>
<ndm xmlns:xsi="http://www.w3.org/2001/XMLSchema-instance" xsi:noNamespaceSchemaLocation="https://sanaregistry.org/r/ndmxml_unqualified/ndmxml-2.0.0-master-2.0.xsd">
<omm id="CCSDS_OMM_VERS" version="2.0">
<header><CREATION_DATE/><ORIGINATOR/></header><body><segment><metadata><OBJECT_NAME>ONEWEB-0656</OBJECT_NAME><OBJECT_ID>2023-029X</OBJECT_ID><CENTER_NAME>EARTH</CENTER_NAME><REF_FRAME>TEME</REF_FRAME><TIME_SYSTEM>UTC</TIME_SYSTEM><MEAN_ELEMENT_THEORY>SGP4</MEAN_ELEMENT_THEORY></metadata><data><meanElements><EPOCH>2025-03-26T11:33:16.733088</EPOCH><MEAN_MOTION>13.20771178</MEAN_MOTION><ECCENTRICITY>.0001545</ECCENTRICITY><INCLINATION>87.9342</INCLINATION><RA_OF_ASC_NODE>3.5286</RA_OF_ASC_NODE><ARG_OF_PERICENTER>97.1105</ARG_OF_PERICENTER><MEAN_ANOMALY>263.0204</MEAN_ANOMALY></meanElements><tleParameters><EPHEMERIS_TYPE>0</EPHEMERIS_TYPE><CLASSIFICATION_TYPE>U</CLASSIFICATION_TYPE><NORAD_CAT_ID>55817</NORAD_CAT_ID><ELEMENT_SET_NO>999</ELEMENT_SET_NO><REV_AT_EPOCH>10205</REV_AT_EPOCH><BSTAR>-.50867E-3</BSTAR><MEAN_MOTION_DOT>-.194E-5</MEAN_MOTION_DOT><MEAN_MOTION_DDOT>0</MEAN_MOTION_DDOT></tleParameters></data></segment></body></omm>
<omm id="CCSDS_OMM_VERS" version="2.0">
<header><CREATION_DATE/><ORIGINATOR/></header><body><segment><metadata><OBJECT_NAME>ONEWEB-0657</OBJECT_NAME><OBJECT_ID>2023-029Y</OBJECT_ID><CENTER_NAME>EARTH</CENTER_NAME><REF_FRAME>TEME</REF_FRAME><TIME_SYSTEM>UTC</TIME_SYSTEM><MEAN_ELEMENT_THEORY>SGP4</MEAN_ELEMENT_THEORY></metadata><data><meanElements><EPOCH>2025-03-26T19:54:48.557088</EPOCH><MEAN_MOTION>13.19726089</MEAN_MOTION><ECCENTRICITY>.0001103</ECCENTRICITY><INCLINATION>87.9235</INCLINATION><RA_OF_ASC_NODE>33.9001</RA_OF_ASC_NODE><ARG_OF_PERICENTER>85.0506</ARG_OF_PERICENTER><MEAN_ANOMALY>275.0753</MEAN_ANOMALY></meanElements><tleParameters><EPHEMERIS_TYPE>0</EPHEMERIS_TYPE><CLASSIFICATION_TYPE>U</CLASSIFICATION_TYPE><NORAD_CAT_ID>55818</NORAD_CAT_ID><ELEMENT_SET_NO>999</ELEMENT_SET_NO><REV_AT_EPOCH>9990</REV_AT_EPOCH><BSTAR>-.35208E-3</BSTAR><MEAN_MOTION_DOT>-.128E-5</MEAN_MOTION_DOT><MEAN_MOTION_DDOT>0</MEAN_MOTION_DDOT></tleParameters></data></segment></body></omm>
<omm id="CCSDS_OMM_VERS" version="2.0">
<header><CREATION_DATE/><ORIGINATOR/></header><body><segment><metadata><OBJECT_NAME>ONEWEB-0658</OBJECT_NAME><OBJECT_ID>2023-029Z</OBJECT_ID><CENTER_NAME>EARTH</CENTER_NAME><REF_FRAME>TEME</REF_FRAME><TIME_SYSTEM>UTC</TIME_SYSTEM><MEAN_ELEMENT_THEORY>SGP4</MEAN_ELEMENT_THEORY></metadata><data><meanElements><EPOCH>2025-03-26T14:20:26.948832</EPOCH><MEAN_MOTION>13.19726877</MEAN_MOTION><ECCENTRICITY>.000204</ECCENTRICITY><INCLINATION>87.9234</INCLINATION><RA_OF_ASC_NODE>33.8802</RA_OF_ASC_NODE><ARG_OF_PERICENTER>65.3928</ARG_OF_PERICENTER><MEAN_ANOMALY>294.7417</MEAN_ANOMALY></meanElements><tleParameters><EPHEMERIS_TYPE>0</EPHEMERIS_TYPE><CLASSIFICATION_TYPE>U</CLASSIFICATION_TYPE><NORAD_CAT_ID>55819</NORAD_CAT_ID><ELEMENT_SET_NO>999</ELEMENT_SET_NO><REV_AT_EPOCH>9988</REV_AT_EPOCH><BSTAR>-.97976E-5</BSTAR><MEAN_MOTION_DOT>.9E-7</MEAN_MOTION_DOT><MEAN_MOTION_DDOT>0</MEAN_MOTION_DDOT></tleParameters></data></segment></body></omm>
<omm id="CCSDS_OMM_VERS" version="2.0">
<header><CREATION_DATE/><ORIGINATOR/></header><body><segment><metadata><OBJECT_NAME>ONEWEB-0660</OBJECT_NAME><OBJECT_ID>2023-029AA</OBJECT_ID><CENTER_NAME>EARTH</CENTER_NAME><REF_FRAME>TEME</REF_FRAME><TIME_SYSTEM>UTC</TIME_SYSTEM><MEAN_ELEMENT_THEORY>SGP4</MEAN_ELEMENT_THEORY></metadata><data><meanElements><EPOCH>2025-03-26T13:17:53.464992</EPOCH><MEAN_MOTION>13.14502620</MEAN_MOTION><ECCENTRICITY>.0002249</ECCENTRICITY><INCLINATION>87.9087</INCLINATION><RA_OF_ASC_NODE>18.6935</RA_OF_ASC_NODE><ARG_OF_PERICENTER>75.9322</ARG_OF_PERICENTER><MEAN_ANOMALY>284.2058</MEAN_ANOMALY></meanElements><tleParameters><EPHEMERIS_TYPE>0</EPHEMERIS_TYPE><CLASSIFICATION_TYPE>U</CLASSIFICATION_TYPE><NORAD_CAT_ID>55820</NORAD_CAT_ID><ELEMENT_SET_NO>999</ELEMENT_SET_NO><REV_AT_EPOCH>10059</REV_AT_EPOCH><BSTAR>.27072E-3</BSTAR><MEAN_MOTION_DOT>.113E-5</MEAN_MOTION_DOT><MEAN_MOTION_DDOT>0</MEAN_MOTION_DDOT></tleParameters></data></segment></body></omm>
<omm id="CCSDS_OMM_VERS" version="2.0">
<header><CREATION_DATE/><ORIGINATOR/></header><body><segment><metadata><OBJECT_NAME>ONEWEB-0661</OBJECT_NAME><OBJECT_ID>2023-029AB</OBJECT_ID><CENTER_NAME>EARTH</CENTER_NAME><REF_FRAME>TEME</REF_FRAME><TIME_SYSTEM>UTC</TIME_SYSTEM><MEAN_ELEMENT_THEORY>SGP4</MEAN_ELEMENT_THEORY></metadata><data><meanElements><EPOCH>2025-03-26T17:47:20.639040</EPOCH><MEAN_MOTION>13.14501241</MEAN_MOTION><ECCENTRICITY>.000229</ECCENTRICITY><INCLINATION>87.9089</INCLINATION><RA_OF_ASC_NODE>18.7263</RA_OF_ASC_NODE><ARG_OF_PERICENTER>79.1409</ARG_OF_PERICENTER><MEAN_ANOMALY>280.9978</MEAN_ANOMALY></meanElements><tleParameters><EPHEMERIS_TYPE>0</EPHEMERIS_TYPE><CLASSIFICATION_TYPE>U</CLASSIFICATION_TYPE><NORAD_CAT_ID>55821</NORAD_CAT_ID><ELEMENT_SET_NO>999</ELEMENT_SET_NO><REV_AT_EPOCH>10060</REV_AT_EPOCH><BSTAR>-.51867E-3</BSTAR><MEAN_MOTION_DOT>-.18E-5</MEAN_MOTION_DOT><MEAN_MOTION_DDOT>0</MEAN_MOTION_DDOT></tleParameters></data></segment></body></omm>
<omm id="CCSDS_OMM_VERS" version="2.0">
<header><CREATION_DATE/><ORIGINATOR/></header><body><segment><metadata><OBJECT_NAME>ONEWEB-0662</OBJECT_NAME><OBJECT_ID>2023-029AC</OBJECT_ID><CENTER_NAME>EARTH</CENTER_NAME><REF_FRAME>TEME</REF_FRAME><TIME_SYSTEM>UTC</TIME_SYSTEM><MEAN_ELEMENT_THEORY>SGP4</MEAN_ELEMENT_THEORY></metadata><data><meanElements><EPOCH>2025-03-26T13:08:44.464704</EPOCH><MEAN_MOTION>13.14502561</MEAN_MOTION><ECCENTRICITY>.0002237</ECCENTRICITY><INCLINATION>87.9088</INCLINATION><RA_OF_ASC_NODE>18.7715</RA_OF_ASC_NODE><ARG_OF_PERICENTER>74.8944</ARG_OF_PERICENTER><MEAN_ANOMALY>285.2433</MEAN_ANOMALY></meanElements><tleParameters><EPHEMERIS_TYPE>0</EPHEMERIS_TYPE><CLASSIFICATION_TYPE>U</CLASSIFICATION_TYPE><NORAD_CAT_ID>55822</NORAD_CAT_ID><ELEMENT_SET_NO>999</ELEMENT_SET_NO><REV_AT_EPOCH>10062</REV_AT_EPOCH><BSTAR>.93553E-4</BSTAR><MEAN_MOTION_DOT>.47E-6</MEAN_MOTION_DOT><MEAN_MOTION_DDOT>0</MEAN_MOTION_DDOT></tleParameters></data></segment></body></omm>
<omm id="CCSDS_OMM_VERS" version="2.0">
<header><CREATION_DATE/><ORIGINATOR/></header><body><segment><metadata><OBJECT_NAME>ONEWEB-0663</OBJECT_NAME><OBJECT_ID>2023-029AD</OBJECT_ID><CENTER_NAME>EARTH</CENTER_NAME><REF_FRAME>TEME</REF_FRAME><TIME_SYSTEM>UTC</TIME_SYSTEM><MEAN_ELEMENT_THEORY>SGP4</MEAN_ELEMENT_THEORY></metadata><data><meanElements><EPOCH>2025-03-26T16:39:03.327264</EPOCH><MEAN_MOTION>13.20827674</MEAN_MOTION><ECCENTRICITY>.0002245</ECCENTRICITY><INCLINATION>87.9338</INCLINATION><RA_OF_ASC_NODE>3.5438</RA_OF_ASC_NODE><ARG_OF_PERICENTER>71.9513</ARG_OF_PERICENTER><MEAN_ANOMALY>288.1865</MEAN_ANOMALY></meanElements><tleParameters><EPHEMERIS_TYPE>0</EPHEMERIS_TYPE><CLASSIFICATION_TYPE>U</CLASSIFICATION_TYPE><NORAD_CAT_ID>55823</NORAD_CAT_ID><ELEMENT_SET_NO>999</ELEMENT_SET_NO><REV_AT_EPOCH>10207</REV_AT_EPOCH><BSTAR>-.4417E-3</BSTAR><MEAN_MOTION_DOT>-.167E-5</MEAN_MOTION_DOT><MEAN_MOTION_DDOT>0</MEAN_MOTION_DDOT></tleParameters></data></segment></body></omm>
<omm id="CCSDS_OMM_VERS" version="2.0">
<header><CREATION_DATE/><ORIGINATOR/></header><body><segment><metadata><OBJECT_NAME>ONEWEB-0664</OBJECT_NAME><OBJECT_ID>2023-029AE</OBJECT_ID><CENTER_NAME>EARTH</CENTER_NAME><REF_FRAME>TEME</REF_FRAME><TIME_SYSTEM>UTC</TIME_SYSTEM><MEAN_ELEMENT_THEORY>SGP4</MEAN_ELEMENT_THEORY></metadata><data><meanElements><EPOCH>2025-03-26T07:36:55.721376</EPOCH><MEAN_MOTION>13.20774703</MEAN_MOTION><ECCENTRICITY>.0002158</ECCENTRICITY><INCLINATION>87.9340</INCLINATION><RA_OF_ASC_NODE>3.6369</RA_OF_ASC_NODE><ARG_OF_PERICENTER>88.5897</ARG_OF_PERICENTER><MEAN_ANOMALY>271.5483</MEAN_ANOMALY></meanElements><tleParameters><EPHEMERIS_TYPE>0</EPHEMERIS_TYPE><CLASSIFICATION_TYPE>U</CLASSIFICATION_TYPE><NORAD_CAT_ID>55824</NORAD_CAT_ID><ELEMENT_SET_NO>999</ELEMENT_SET_NO><REV_AT_EPOCH>10202</REV_AT_EPOCH><BSTAR>.15401E-3</BSTAR><MEAN_MOTION_DOT>.76E-6</MEAN_MOTION_DOT><MEAN_MOTION_DDOT>0</MEAN_MOTION_DDOT></tleParameters></data></segment></body></omm>

</ndm>
